[
    {
        "Altitude(m)": 605459.0644274026,
        "Argument of Periapsis(deg)": 0.0,
        "Eccentricity": 0.0,
        "Inclination(deg)": 60.0,
        "Latitude(deg)": 27.988329687848307,
        "Longitude(deg)": 72.79855988991108,
        "Mean Anomaly(deg)": 32.727299999999985,
        "RAAN(deg)": 155.0,
        "Satellite Name": "Test1 684",
        "Satellite Number": 684,
        "Semi-Major Axis(m)": 6980739.136638005,
        "Time(s)": 0
    },
    {
        "Altitude(m)": 605535.8559636828,
        "Argument of Periapsis(deg)": 0.00010418945913296404,
        "Eccentricity": 0.0,
        "Inclination(deg)": 60.0,
        "Latitude(deg)": 28.50145947856429,
        "Longitude(deg)": 73.15550481514494,
        "Mean Anomaly(deg)": 33.34740614546184,
        "RAAN(deg)": 154.99957995086027,
        "Satellite Name": "Test1 684",
        "Satellite Number": 684,
        "Semi-Major Axis(m)": 6980739.136638005,
        "Time(s)": 10
    },
    {
        "Altitude(m)": 605614.3381068875,
        "Argument of Periapsis(deg)": 0.0002083789182659281,
        "Eccentricity": 0.0,
        "Inclination(deg)": 60.0,
        "Latitude(deg)": 29.013371743375117,
        "Longitude(deg)": 73.51631459754341,
        "Mean Anomaly(deg)": 33.967512290923665,
        "RAAN(deg)": 154.99915990172053,
        "Satellite Name": "Test1 684",
        "Satellite Number": 684,
        "Semi-Major Axis(m)": 6980739.136638005,
        "Time(s)": 20
    },
    {
        "Altitude(m)": 605694.4531646634,
        "Argument of Periapsis(deg)": 0.00031256837739889213,
        "Eccentricity": 0.0,
        "Inclination(deg)": 60.0,
        "Latitude(deg)": 29.52402920927109,
        "Longitude(deg)": 73.8811009937163,
        "Mean Anomaly(deg)": 34.5876184363855,
        "RAAN(deg)": 154.99873985258077,
        "Satellite Name": "Test1 684",
        "Satellite Number": 684,
        "Semi-Major Axis(m)": 6980739.136638005,
        "Time(s)": 30
    },
    {
        "Altitude(m)": 605776.1428353026,
        "Argument of Periapsis(deg)": 0.0004167578365318562,
        "Eccentricity": 0.0,
        "Inclination(deg)": 60.0,
        "Latitude(deg)": 30.0333936067635,
        "Longitude(deg)": 74.24997876660758,
        "Mean Anomaly(deg)": 35.20772458184732,
        "RAAN(deg)": 154.99831980344103,
        "Satellite Name": "Test1 684",
        "Satellite Number": 684,
        "Semi-Major Axis(m)": 6980739.136638005,
        "Time(s)": 40
    },
    {
        "Altitude(m)": 605859.3482381024,
        "Argument of Periapsis(deg)": 0.0005209472956648203,
        "Eccentricity": 0.0,
        "Inclination(deg)": 60.0,
        "Latitude(deg)": 30.541425631148748,
        "Longitude(deg)": 74.62306474431122,
        "Mean Anomaly(deg)": 35.82783072730915,
        "RAAN(deg)": 154.99789975430127,
        "Satellite Name": "Test1 684",
        "Satellite Number": 684,
        "Semi-Major Axis(m)": 6980739.136638005,
        "Time(s)": 50
    },
    {
        "Altitude(m)": 605944.0099439311,
        "Argument of Periapsis(deg)": 0.0006251367547977843,
        "Eccentricity": 0.0,
        "Inclination(deg)": 60.0,
        "Latitude(deg)": 31.048084902416342,
        "Longitude(deg)": 75.00047839193604,
        "Mean Anomaly(deg)": 36.447936872770974,
        "RAAN(deg)": 154.99747970516154,
        "Satellite Name": "Test1 684",
        "Satellite Number": 684,
        "Semi-Major Axis(m)": 6980739.136638005,
        "Time(s)": 60
    },
    {
        "Altitude(m)": 606030.0680060548,
        "Argument of Periapsis(deg)": 0.0007293262139307483,
        "Eccentricity": 0.0,
        "Inclination(deg)": 60.0,
        "Latitude(deg)": 31.55332992375776,
        "Longitude(deg)": 75.38234238348213,
        "Mean Anomaly(deg)": 37.06804301823281,
        "RAAN(deg)": 154.9970596560218,
        "Satellite Name": "Test1 684",
        "Satellite Number": 684,
        "Semi-Major Axis(m)": 6980739.136638005,
        "Time(s)": 70
    },
    {
        "Altitude(m)": 606117.4619911149,
        "Argument of Periapsis(deg)": 0.0008335156730637124,
        "Eccentricity": 0.0,
        "Inclination(deg)": 60.0,
        "Latitude(deg)": 32.05711803863601,
        "Longitude(deg)": 75.76878166066977,
        "Mean Anomaly(deg)": 37.68814916369463,
        "RAAN(deg)": 154.99663960688207,
        "Satellite Name": "Test1 684",
        "Satellite Number": 684,
        "Semi-Major Axis(m)": 6980739.136638005,
        "Time(s)": 80
    },
    {
        "Altitude(m)": 606206.1310103419,
        "Argument of Periapsis(deg)": 0.0009377051321966765,
        "Eccentricity": 0.0,
        "Inclination(deg)": 60.0,
        "Latitude(deg)": 32.55940538637797,
        "Longitude(deg)": 76.1599240042612,
        "Mean Anomaly(deg)": 38.30825530915646,
        "RAAN(deg)": 154.9962195577423,
        "Satellite Name": "Test1 684",
        "Satellite Number": 684,
        "Semi-Major Axis(m)": 6980739.136638005,
        "Time(s)": 90
    },
    {
        "Altitude(m)": 606296.0137509031,
        "Argument of Periapsis(deg)": 0.0010418945913296407,
        "Eccentricity": 0.0,
        "Inclination(deg)": 60.0,
        "Latitude(deg)": 33.06014685625014,
        "Longitude(deg)": 76.55590060476892,
        "Mean Anomaly(deg)": 38.92836145461828,
        "RAAN(deg)": 154.99579950860257,
        "Satellite Name": "Test1 684",
        "Satellite Number": 684,
        "Semi-Major Axis(m)": 6980739.136638005,
        "Time(s)": 100
    },
    {
        "Altitude(m)": 606387.0485074169,
        "Argument of Periapsis(deg)": 0.0011460840504626045,
        "Eccentricity": 0.0,
        "Inclination(deg)": 60.0,
        "Latitude(deg)": 33.559296039979614,
        "Longitude(deg)": 76.9568451194114,
        "Mean Anomaly(deg)": 39.54846760008014,
        "RAAN(deg)": 154.99537945946284,
        "Satellite Name": "Test1 684",
        "Satellite Number": 684,
        "Semi-Major Axis(m)": 6980739.136638005,
        "Time(s)": 110
    },
    {
        "Altitude(m)": 606479.1732136302,
        "Argument of Periapsis(deg)": 0.0012502735095955685,
        "Eccentricity": 0.0,
        "Inclination(deg)": 60.0,
        "Latitude(deg)": 34.05680518268636,
        "Longitude(deg)": 77.36289424077552,
        "Mean Anomaly(deg)": 40.16857374554196,
        "RAAN(deg)": 154.9949594103231,
        "Satellite Name": "Test1 684",
        "Satellite Number": 684,
        "Semi-Major Axis(m)": 6980739.136638005,
        "Time(s)": 120
    },
    {
        "Altitude(m)": 606572.3254741693,
        "Argument of Periapsis(deg)": 0.0013544629687285324,
        "Eccentricity": 0.0,
        "Inclination(deg)": 60.0,
        "Latitude(deg)": 34.552625132192816,
        "Longitude(deg)": 77.77418826398437,
        "Mean Anomaly(deg)": 40.788679891003795,
        "RAAN(deg)": 154.99453936118334,
        "Satellite Name": "Test1 684",
        "Satellite Number": 684,
        "Semi-Major Axis(m)": 6980739.136638005,
        "Time(s)": 130
    },
    {
        "Altitude(m)": 606666.4425964406,
        "Argument of Periapsis(deg)": 0.0014586524278614966,
        "Eccentricity": 0.0,
        "Inclination(deg)": 60.0,
        "Latitude(deg)": 35.046705286678176,
        "Longitude(deg)": 78.19087013913378,
        "Mean Anomaly(deg)": 41.40878603646562,
        "RAAN(deg)": 154.9941193120436,
        "Satellite Name": "Test1 684",
        "Satellite Number": 684,
        "Semi-Major Axis(m)": 6980739.136638005,
        "Time(s)": 140
    },
    {
        "Altitude(m)": 606761.461622599,
        "Argument of Periapsis(deg)": 0.0015628418869944607,
        "Eccentricity": 0.0,
        "Inclination(deg)": 60.0,
        "Latitude(deg)": 35.53899354065158,
        "Longitude(deg)": 78.61308603434574,
        "Mean Anomaly(deg)": 42.02889218192745,
        "RAAN(deg)": 154.99369926290387,
        "Satellite Name": "Test1 684",
        "Satellite Number": 684,
        "Semi-Major Axis(m)": 6980739.136638005,
        "Time(s)": 150
    },
    {
        "Altitude(m)": 606857.3193616138,
        "Argument of Periapsis(deg)": 0.0016670313461274247,
        "Eccentricity": 0.0,
        "Inclination(deg)": 60.0,
        "Latitude(deg)": 36.02943622921868,
        "Longitude(deg)": 79.04098589612089,
        "Mean Anomaly(deg)": 42.64899832738928,
        "RAAN(deg)": 154.99327921376414,
        "Satellite Name": "Test1 684",
        "Satellite Number": 684,
        "Semi-Major Axis(m)": 6980739.136638005,
        "Time(s)": 160
    },
    {
        "Altitude(m)": 606953.952421367,
        "Argument of Periapsis(deg)": 0.0017712208052603888,
        "Eccentricity": 0.0,
        "Inclination(deg)": 60.0,
        "Latitude(deg)": 36.51797807062068,
        "Longitude(deg)": 79.47472249362318,
        "Mean Anomaly(deg)": 43.26910447285113,
        "RAAN(deg)": 154.99285916462438,
        "Satellite Name": "Test1 684",
        "Satellite Number": 684,
        "Semi-Major Axis(m)": 6980739.136638005,
        "Time(s)": 170
    },
    {
        "Altitude(m)": 607051.2972408133,
        "Argument of Periapsis(deg)": 0.001875410264393353,
        "Eccentricity": 0.0,
        "Inclination(deg)": 60.0,
        "Latitude(deg)": 37.00456210703208,
        "Longitude(deg)": 79.91445197210791,
        "Mean Anomaly(deg)": 43.88921061831296,
        "RAAN(deg)": 154.99243911548464,
        "Satellite Name": "Test1 684",
        "Satellite Number": 684,
        "Semi-Major Axis(m)": 6980739.136638005,
        "Time(s)": 180
    },
    {
        "Altitude(m)": 607149.2901221649,
        "Argument of Periapsis(deg)": 0.0019795997235263173,
        "Eccentricity": 0.0,
        "Inclination(deg)": 60.0,
        "Latitude(deg)": 37.48912964360739,
        "Longitude(deg)": 80.36033440202361,
        "Mean Anomaly(deg)": 44.509316763774784,
        "RAAN(deg)": 154.9920190663449,
        "Satellite Name": "Test1 684",
        "Satellite Number": 684,
        "Semi-Major Axis(m)": 6980739.136638005,
        "Time(s)": 190
    }
]